[
    {
        "Altitude(m)": 702793.2006074048,
        "Argument of Periapsis(deg)": 0.009112096949301655,
        "Eccentricity": 0.0,
        "Inclination(deg)": 45.0,
        "Latitude(deg)": 16.408078130359108,
        "Longitude(deg)": 27.35622901159902,
        "Mean Anomaly(deg)": -203.5007266820154,
        "RAAN(deg)": 324.9913984468334,
        "Satellite Name": "Constellation 1 1439",
        "Satellite Number": 1439,
        "Semi-Major Axis(m)": 7083131.272910544,
        "Time(s)": 152
    },
    {
        "Altitude(m)": 702791.2588604618,
        "Argument of Periapsis(deg)": 0.009172044955547059,
        "Eccentricity": 0.0,
        "Inclination(deg)": 45.0,
        "Latitude(deg)": 16.366768994076704,
        "Longitude(deg)": 27.398676451539806,
        "Mean Anomaly(deg)": -203.44002554176544,
        "RAAN(deg)": 324.99134185766786,
        "Satellite Name": "Constellation 1 1439",
        "Satellite Number": 1439,
        "Semi-Major Axis(m)": 7083131.272910544,
        "Time(s)": 153
    },
    {
        "Altitude(m)": 702789.3336072066,
        "Argument of Periapsis(deg)": 0.009231992961792466,
        "Eccentricity": 0.0,
        "Inclination(deg)": 45.0,
        "Latitude(deg)": 16.325449437883826,
        "Longitude(deg)": 27.441104283065332,
        "Mean Anomaly(deg)": -203.37932440151556,
        "RAAN(deg)": 324.9912852685023,
        "Satellite Name": "Constellation 1 1439",
        "Satellite Number": 1439,
        "Semi-Major Axis(m)": 7083131.272910544,
        "Time(s)": 154
    },
    {
        "Altitude(m)": 702787.4248738344,
        "Argument of Periapsis(deg)": 0.009291940968037872,
        "Eccentricity": 0.0,
        "Inclination(deg)": 45.0,
        "Latitude(deg)": 16.284119493852543,
        "Longitude(deg)": 27.48351256164905,
        "Mean Anomaly(deg)": -203.31862326126563,
        "RAAN(deg)": 324.99122867933676,
        "Satellite Name": "Constellation 1 1439",
        "Satellite Number": 1439,
        "Semi-Major Axis(m)": 7083131.272910544,
        "Time(s)": 155
    },
    {
        "Altitude(m)": 702785.5326864701,
        "Argument of Periapsis(deg)": 0.009351888974283276,
        "Eccentricity": 0.0,
        "Inclination(deg)": 45.0,
        "Latitude(deg)": 16.242779194016478,
        "Longitude(deg)": 27.52590117463606,
        "Mean Anomaly(deg)": -203.25792212101575,
        "RAAN(deg)": 324.9911720901712,
        "Satellite Name": "Constellation 1 1439",
        "Satellite Number": 1439,
        "Semi-Major Axis(m)": 7083131.272910544,
        "Time(s)": 156
    },
    {
        "Altitude(m)": 702783.6570711792,
        "Argument of Periapsis(deg)": 0.00941183698052868,
        "Eccentricity": 0.0,
        "Inclination(deg)": 45.0,
        "Latitude(deg)": 16.201428570371707,
        "Longitude(deg)": 27.568270513631838,
        "Mean Anomaly(deg)": -203.19722098076582,
        "RAAN(deg)": 324.9911155010056,
        "Satellite Name": "Constellation 1 1439",
        "Satellite Number": 1439,
        "Semi-Major Axis(m)": 7083131.272910544,
        "Time(s)": 157
    },
    {
        "Altitude(m)": 702781.7980539553,
        "Argument of Periapsis(deg)": 0.009471784986774088,
        "Eccentricity": 0.0,
        "Inclination(deg)": 45.0,
        "Latitude(deg)": 16.16006765487561,
        "Longitude(deg)": 27.610620465919233,
        "Mean Anomaly(deg)": -203.136519840516,
        "RAAN(deg)": 324.99105891184,
        "Satellite Name": "Constellation 1 1439",
        "Satellite Number": 1439,
        "Semi-Major Axis(m)": 7083131.272910544,
        "Time(s)": 158
    },
    {
        "Altitude(m)": 702779.9556607255,
        "Argument of Periapsis(deg)": 0.009531732993019492,
        "Eccentricity": 0.0,
        "Inclination(deg)": 45.0,
        "Latitude(deg)": 16.118696479447365,
        "Longitude(deg)": 27.652951086847885,
        "Mean Anomaly(deg)": -203.07581870026607,
        "RAAN(deg)": 324.99100232267443,
        "Satellite Name": "Constellation 1 1439",
        "Satellite Number": 1439,
        "Semi-Major Axis(m)": 7083131.272910544,
        "Time(s)": 159
    },
    {
        "Altitude(m)": 702778.1299173471,
        "Argument of Periapsis(deg)": 0.009591680999264898,
        "Eccentricity": 0.0,
        "Inclination(deg)": 45.0,
        "Latitude(deg)": 16.077315075968695,
        "Longitude(deg)": 27.695262431735742,
        "Mean Anomaly(deg)": -203.0151175600161,
        "RAAN(deg)": 324.9909457335089,
        "Satellite Name": "Constellation 1 1439",
        "Satellite Number": 1439,
        "Semi-Major Axis(m)": 7083131.272910544,
        "Time(s)": 160
    },
    {
        "Altitude(m)": 702776.320849616,
        "Argument of Periapsis(deg)": 0.009651629005510304,
        "Eccentricity": 0.0,
        "Inclination(deg)": 45.0,
        "Latitude(deg)": 16.03592347628349,
        "Longitude(deg)": 27.737554555869888,
        "Mean Anomaly(deg)": -202.9544164197663,
        "RAAN(deg)": 324.99088914434327,
        "Satellite Name": "Constellation 1 1439",
        "Satellite Number": 1439,
        "Semi-Major Axis(m)": 7083131.272910544,
        "Time(s)": 161
    },
    {
        "Altitude(m)": 702774.5284832532,
        "Argument of Periapsis(deg)": 0.00971157701175571,
        "Eccentricity": 0.0,
        "Inclination(deg)": 45.0,
        "Latitude(deg)": 15.994521712197773,
        "Longitude(deg)": 27.77982751450659,
        "Mean Anomaly(deg)": -202.89371527951644,
        "RAAN(deg)": 324.99083255517775,
        "Satellite Name": "Constellation 1 1439",
        "Satellite Number": 1439,
        "Semi-Major Axis(m)": 7083131.272910544,
        "Time(s)": 162
    },
    {
        "Altitude(m)": 702772.7528439218,
        "Argument of Periapsis(deg)": 0.009771525018001118,
        "Eccentricity": 0.0,
        "Inclination(deg)": 45.0,
        "Latitude(deg)": 15.953109815479705,
        "Longitude(deg)": 27.822081194774054,
        "Mean Anomaly(deg)": -202.83301413926642,
        "RAAN(deg)": 324.99077596601217,
        "Satellite Name": "Constellation 1 1439",
        "Satellite Number": 1439,
        "Semi-Major Axis(m)": 7083131.272910544,
        "Time(s)": 163
    },
    {
        "Altitude(m)": 702770.9939572081,
        "Argument of Periapsis(deg)": 0.00983147302424652,
        "Eccentricity": 0.0,
        "Inclination(deg)": 45.0,
        "Latitude(deg)": 15.911687817861223,
        "Longitude(deg)": 27.86431598806047,
        "Mean Anomaly(deg)": -202.77231299901658,
        "RAAN(deg)": 324.9907193768466,
        "Satellite Name": "Constellation 1 1439",
        "Satellite Number": 1439,
        "Semi-Major Axis(m)": 7083131.272910544,
        "Time(s)": 164
    },
    {
        "Altitude(m)": 702769.2518486363,
        "Argument of Periapsis(deg)": 0.009891421030491928,
        "Eccentricity": 0.0,
        "Inclination(deg)": 45.0,
        "Latitude(deg)": 15.870255751035682,
        "Longitude(deg)": 27.906531781432268,
        "Mean Anomaly(deg)": -202.71161185876673,
        "RAAN(deg)": 324.99066278768106,
        "Satellite Name": "Constellation 1 1439",
        "Satellite Number": 1439,
        "Semi-Major Axis(m)": 7083131.272910544,
        "Time(s)": 165
    },
    {
        "Altitude(m)": 702767.5265436553,
        "Argument of Periapsis(deg)": 0.009951369036737332,
        "Eccentricity": 0.0,
        "Inclination(deg)": 45.0,
        "Latitude(deg)": 15.828813646659603,
        "Longitude(deg)": 27.9487286300218,
        "Mean Anomaly(deg)": -202.6509107185168,
        "RAAN(deg)": 324.9906061985154,
        "Satellite Name": "Constellation 1 1439",
        "Satellite Number": 1439,
        "Semi-Major Axis(m)": 7083131.272910544,
        "Time(s)": 166
    },
    {
        "Altitude(m)": 702765.8180676559,
        "Argument of Periapsis(deg)": 0.010011317042982738,
        "Eccentricity": 0.0,
        "Inclination(deg)": 45.0,
        "Latitude(deg)": 15.787361536352503,
        "Longitude(deg)": 27.99090658893042,
        "Mean Anomaly(deg)": -202.5902095782668,
        "RAAN(deg)": 324.9905496093499,
        "Satellite Name": "Constellation 1 1439",
        "Satellite Number": 1439,
        "Semi-Major Axis(m)": 7083131.272910544,
        "Time(s)": 167
    },
    {
        "Altitude(m)": 702764.1264459471,
        "Argument of Periapsis(deg)": 0.010071265049228144,
        "Eccentricity": 0.0,
        "Inclination(deg)": 45.0,
        "Latitude(deg)": 15.745899451697015,
        "Longitude(deg)": 28.03306571322854,
        "Mean Anomaly(deg)": -202.52950843801705,
        "RAAN(deg)": 324.9904930201843,
        "Satellite Name": "Constellation 1 1439",
        "Satellite Number": 1439,
        "Semi-Major Axis(m)": 7083131.272910544,
        "Time(s)": 168
    },
    {
        "Altitude(m)": 702762.4517037867,
        "Argument of Periapsis(deg)": 0.01013121305547355,
        "Eccentricity": 0.0,
        "Inclination(deg)": 45.0,
        "Latitude(deg)": 15.70442742423843,
        "Longitude(deg)": 28.075206057956052,
        "Mean Anomaly(deg)": -202.46880729776706,
        "RAAN(deg)": 324.99043643101874,
        "Satellite Name": "Constellation 1 1439",
        "Satellite Number": 1439,
        "Semi-Major Axis(m)": 7083131.272910544,
        "Time(s)": 169
    },
    {
        "Altitude(m)": 702760.7938663487,
        "Argument of Periapsis(deg)": 0.010191161061718957,
        "Eccentricity": 0.0,
        "Inclination(deg)": 45.0,
        "Latitude(deg)": 15.662945485485704,
        "Longitude(deg)": 28.11732767812164,
        "Mean Anomaly(deg)": -202.40810615751712,
        "RAAN(deg)": 324.99037984185316,
        "Satellite Name": "Constellation 1 1439",
        "Satellite Number": 1439,
        "Semi-Major Axis(m)": 7083131.272910544,
        "Time(s)": 170
    }
]